[{"OBJECT_NAME":"FLOCK 4G-29","OBJECT_ID":"2025-009AK","EPOCH":"2026-03-09T19:33:04.927968","MEAN_MOTION":15.27382318,"ECCENTRICITY":0.00013664,"INCLINATION":97.4058,"RA_OF_ASC_NODE":151.3683,"ARG_OF_PERICENTER":288.0502,"MEAN_ANOMALY":72.0588,"EPHEMERIS_TYPE":0,"CLASSIFICATION_TYPE":"U","NORAD_CAT_ID":62642,"ELEMENT_SET_NO":999,"REV_AT_EPOCH":6372,"BSTAR":0.0004183135,"MEAN_MOTION_DOT":0.00011147,"MEAN_MOTION_DDOT":0},{"OBJECT_NAME":"STARLINK-33941","OBJECT_ID":"2025-089Q","EPOCH":"2026-03-09T22:29:44.540448","MEAN_MOTION":15.27595221,"ECCENTRICITY":0.00027133,"INCLINATION":43.0019,"RA_OF_ASC_NODE":43.9862,"ARG_OF_PERICENTER":287.5994,"MEAN_ANOMALY":72.4561,"EPHEMERIS_TYPE":0,"CLASSIFICATION_TYPE":"U","NORAD_CAT_ID":63765,"ELEMENT_SET_NO":999,"REV_AT_EPOCH":4898,"BSTAR":0.0012558018,"MEAN_MOTION_DOT":0.00034474,"MEAN_MOTION_DDOT":0}]
